LYNK TOWER 4            
1 55034U 23001AB  26068.67743801  .00009160  00000+0  30014-3 0  9997
2 55034  97.3324 128.5940 0010321 112.3386 247.8950 15.31819885176588
STARLINK-32651          
1 62314U 24239P   26068.61526155  .00028253  00000+0  96322-3 0  9993
2 62314  53.1593 194.1825 0001348 105.2248 254.8902 15.30172456 69371
