[{"OBJECT_NAME":"LYNK TOWER 4","OBJECT_ID":"2023-001AB","EPOCH":"2026-03-09T16:15:30.644928","MEAN_MOTION":15.31819885,"ECCENTRICITY":0.00103213,"INCLINATION":97.3324,"RA_OF_ASC_NODE":128.594,"ARG_OF_PERICENTER":112.3386,"MEAN_ANOMALY":247.895,"EPHEMERIS_TYPE":0,"CLASSIFICATION_TYPE":"U","NORAD_CAT_ID":55034,"ELEMENT_SET_NO":999,"REV_AT_EPOCH":17658,"BSTAR":0.00030013829,"MEAN_MOTION_DOT":9.16e-5,"MEAN_MOTION_DDOT":0},{"OBJECT_NAME":"STARLINK-32651","OBJECT_ID":"2024-239P","EPOCH":"2026-03-09T14:45:58.597920","MEAN_MOTION":15.30172456,"ECCENTRICITY":0.0001348,"INCLINATION":53.1593,"RA_OF_ASC_NODE":194.1825,"ARG_OF_PERICENTER":105.2248,"MEAN_ANOMALY":254.8902,"EPHEMERIS_TYPE":0,"CLASSIFICATION_TYPE":"U","NORAD_CAT_ID":62314,"ELEMENT_SET_NO":999,"REV_AT_EPOCH":6937,"BSTAR":0.00096322,"MEAN_MOTION_DOT":0.00028253,"MEAN_MOTION_DDOT":0}]
